OBJECT_NAME,OBJECT_ID,EPOCH,MEAN_MOTION,ECCENTRICITY,INCLINATION,RA_OF_ASC_NODE,ARG_OF_PERICENTER,MEAN_ANOMALY,EPHEMERIS_TYPE,CLASSIFICATION_TYPE,NORAD_CAT_ID,ELEMENT_SET_NO,REV_AT_EPOCH,BSTAR,MEAN_MOTION_DOT,MEAN_MOTION_DDOT
HAWK-5A,2022-057AB,2026-06-25T10:16:29.632800,15.51663979,.00049537,97.6610,335.8096,52.0994,308.0705,0,U,52757,999,22762,.3811347E-3,.22595E-3,0
HAWK-6B,2023-011A,2026-06-25T12:15:57.143520,15.23001556,.00013002,40.4996,303.5200,84.8855,275.2102,0,U,55324,999,18911,.21235509E-3,.4907E-4,0
HAWK-6C,2023-011C,2026-06-25T12:15:02.090304,15.22995160,.00020313,40.4981,300.3614,63.4562,296.6456,0,U,55326,999,18912,.20239998E-3,.4666E-4,0
HAWK-6A,2023-011D,2026-06-24T18:56:24.620640,15.22991690,.00017468,40.4995,306.1943,47.9524,312.1434,0,U,55327,999,18901,.19371649E-3,.4457E-4,0
HAWK-7A,2023-054P,2026-06-25T11:54:18.893664,15.27440108,.00036767,97.2699,63.6221,38.6444,321.5059,0,U,56191,999,17829,.25641798E-3,.6816E-4,0
HAWK-7B,2023-054R,2026-06-25T11:54:12.529440,15.27438475,.00032645,97.2726,61.8890,53.8993,306.2549,0,U,56193,999,17829,.25502154E-3,.6777E-4,0
HAWK-7C,2023-054Y,2026-06-25T11:54:02.435328,15.27438778,.00031004,97.2703,62.6550,44.4616,315.6872,0,U,56200,999,17829,.25137659E-3,.668E-4,0
