HAWK-5A                 
1 52757U 22057AB  26176.42812075  .00022595  00000+0  38113-3 0  9994
2 52757  97.6610 335.8096 0004953  52.0994 308.0705 15.51663979227625
HAWK-6B                 
1 55324U 23011A   26176.51107805  .00004907  00000+0  21236-3 0  9991
2 55324  40.4996 303.5200 0001300  84.8855 275.2102 15.23001556189115
HAWK-6C                 
1 55326U 23011C   26176.51044086  .00004666  00000+0  20240-3 0  9990
2 55326  40.4981 300.3614 0002031  63.4562 296.6456 15.22995160189127
HAWK-6A                 
1 55327U 23011D   26175.78917385  .00004457  00000+0  19372-3 0  9992
2 55327  40.4995 306.1943 0001746  47.9524 312.1434 15.22991690189011
HAWK-7A                 
1 56191U 23054P   26176.49605201  .00006816  00000+0  25642-3 0  9997
2 56191  97.2699  63.6221 0003676  38.6444 321.5059 15.27440108178291
HAWK-7B                 
1 56193U 23054R   26176.49597835  .00006777  00000+0  25502-3 0  9993
2 56193  97.2726  61.8890 0003264  53.8993 306.2549 15.27438475178295
HAWK-7C                 
1 56200U 23054Y   26176.49586152  .00006680  00000+0  25138-3 0  9990
2 56200  97.2703  62.6550 0003100  44.4616 315.6872 15.27438778178297
